CSS (TIANHE)            
1 48274U 21035A   23242.86530870  .00023393  00000+0  26786-3 0  9997
2 48274  41.4734  61.8417 0010852 269.5294  90.4302 15.61500909133506
